NORAD_CAT_ID,OBJECT_NAME,OBJECT_TYPE,EPOCH,MEAN_MOTION,ECCENTRICITY,INCLINATION,RA_OF_ASC_NODE,ARG_OF_PERICENTER,MEAN_ANOMALY,BSTAR,MEAN_MOTION_DOT,MEAN_MOTION_DDOT,TLE_LINE0,TLE_LINE1,TLE_LINE2,SEMIMAJOR_AXIS,PERIOD,APOGEE,PERIGEE,DECAYED
53900.0,STARLINK-5045,PAYLOAD,2024-02-29 08:15:51,15.08842555,0.0001495,53.217,42.8086,88.8272,271.2891,7.0943e-05,8.41e-06,0.0,0 STARLINK-5045,1 53900U 22119Q   24060.34434646  .00000841  00000-0  70943-4 0  9998,2 53900  53.2170  42.8086 0001495  88.8272 271.2891 15.08842555 80077,6917.873,95.437,540.772,538.703,0.0
53900.0,STARLINK-5045,PAYLOAD,2024-02-29 22:34:19,15.08839012,0.0001379,53.2166,40.1327,89.0372,271.0778,7.5202e-05,9.09e-06,0.0,0 STARLINK-5045,1 53900U 22119Q   24060.94050780  .00000909  00000-0  75202-4 0  9995,2 53900  53.2166  40.1327 0001379  89.0372 271.0778 15.08839012 80162,6917.883,95.438,540.702,538.794,0.0
53900.0,STARLINK-5045,PAYLOAD,2024-03-01 08:06:38,15.08848777,0.0001504,53.2166,38.3481,90.5667,269.5498,0.00012473,1.698e-05,0.0,0 STARLINK-5045,1 53900U 22119Q   24061.33794034  .00001698  00000-0  12473-3 0  9992,2 53900  53.2166  38.3481 0001504  90.5667 269.5498 15.08848777 79804,6917.854,95.437,540.759,538.678,0.0
53900.0,STARLINK-5045,PAYLOAD,2024-03-01 16:03:34,15.0884382,0.000141,53.2168,36.861,95.352,264.7633,4.3384e-05,4.03e-06,0.0,0 STARLINK-5045,1 53900U 22119Q   24061.66914444  .00000403  00000-0  43384-4 0  9996,2 53900  53.2168  36.8610 0001410  95.3520 264.7633 15.08843820 79857,6917.869,95.437,540.709,538.758,0.0
53900.0,STARLINK-5045,PAYLOAD,2024-03-02 04:46:38,15.08847162,0.0001613,53.2186,34.4797,110.4483,249.6682,6.31e-05,7.17e-06,0.0,0 STARLINK-5045,1 53900U 22119Q   24062.19906138  .00000717  00000-0  63100-4 0  9992,2 53900  53.2186  34.4797 0001613 110.4483 249.6682 15.08847162 80355,6917.858,95.437,540.839,538.608,0.0
53900.0,STARLINK-5045,PAYLOAD,2024-03-03 04:37:26,15.08836681,0.0001235,53.2184,30.0227,86.0652,274.0482,6.7604e-05,7.88e-06,0.0,0 STARLINK-5045,1 53900U 22119Q   24063.19266841  .00000788  00000-0  67604-4 0  9994,2 53900  53.2184  30.0227 0001235  86.0652 274.0482 15.08836681 80083,6917.891,95.438,540.61,538.901,0.0
53900.0,STARLINK-5045,PAYLOAD,2024-03-03 07:48:12,15.08841562,0.0001173,53.2182,29.4262,87.483,272.6296,4.8724e-05,4.88e-06,0.0,0 STARLINK-5045,1 53900U 22119Q   24063.32514577  .00000488  00000-0  48724-4 0  9990,2 53900  53.2182  29.4262 0001173  87.4830 272.6296 15.08841562 80526,6917.876,95.437,540.552,538.929,0.0
53900.0,STARLINK-5045,PAYLOAD,2024-03-04 02:52:49,15.08852989,0.0001511,53.2189,25.8604,101.4983,258.6179,0.00013279,1.827e-05,0.0,0 STARLINK-5045,1 53900U 22119Q   24064.12001592  .00001827  00000-0  13279-3 0  9991,2 53900  53.2189  25.8604 0001511 101.4983 258.6179 15.08852989 80221,6917.841,95.437,540.751,538.66,0.0
53900.0,STARLINK-5045,PAYLOAD,2024-03-04 04:28:12,15.08852558,0.0001247,53.218,25.5631,88.2813,271.8322,0.00016942,2.41e-05,0.0,0 STARLINK-5045,1 53900U 22119Q   24064.18625530  .00002410  00000-0  16942-3 0  9990,2 53900  53.2180  25.5631 0001247  88.2813 271.8322 15.08852558 80655,6917.842,95.437,540.57,538.844,0.0
53900.0,STARLINK-5045,PAYLOAD,2024-03-04 14:00:31,15.08844921,0.0001183,53.2175,23.779,74.3424,285.7699,0.00010107,1.321e-05,0.0,0 STARLINK-5045,1 53900U 22119Q   24064.58369999  .00001321  00000-0  10107-3 0  9995,2 53900  53.2175  23.7790 0001183  74.3424 285.7699 15.08844921 80294,6917.865,95.437,540.549,538.912,0.0
53900.0,STARLINK-5045,PAYLOAD,2024-03-05 02:43:38,15.08822934,0.0001521,53.2176,21.397,74.3954,285.7206,-7.9623e-05,-1.554e-05,0.0,0 STARLINK-5045,1 53900U 22119Q   24065.11364302 -.00001554  00000-0 -79623-4 0  9997,2 53900  53.2176  21.3970 0001521  74.3954 285.7206 15.08822934 80376,6917.933,95.439,540.85,538.745,0.0
53900.0,STARLINK-5045,PAYLOAD,2024-03-05 07:29:46,15.08843064,0.0001441,53.2174,20.5048,91.3063,268.8094,8.5607e-05,1.075e-05,0.0,0 STARLINK-5045,1 53900U 22119Q   24065.31234534  .00001075  00000-0  85607-4 0  9997,2 53900  53.2174  20.5048 0001441  91.3063 268.8094 15.08843064 80826,6917.871,95.437,540.733,538.739,0.0
53900.0,STARLINK-5045,PAYLOAD,2024-03-05 20:12:49,15.08861648,6.91e-05,53.2185,18.1265,94.1694,265.9377,0.0002621,3.889e-05,0.0,0 STARLINK-5045,1 53900U 22119Q   24065.84224157  .00003889  00000-0  26210-3 0  9994,2 53900  53.2185  18.1265 0000691  94.1694 265.9377 15.08861648 80481,6917.814,95.436,540.157,539.201,0.0
53900.0,STARLINK-5045,PAYLOAD,2024-03-06 04:09:47,15.08840863,0.0001264,53.2183,16.6419,84.214,275.8996,-9.6943e-05,-1.83e-05,0.0,0 STARLINK-5045,1 53900U 22119Q   24066.17346231 -.00001830  00000-0 -96943-4 0  9996,2 53900  53.2183  16.6419 0001264  84.2140 275.8996 15.08840863 80535,6917.878,95.438,540.617,538.868,0.0
53900.0,STARLINK-5045,PAYLOAD,2024-03-06 05:45:10,15.08839708,0.000133,53.2182,16.3463,87.2703,272.8442,-0.00010162,-1.905e-05,0.0,0 STARLINK-5045,1 53900U 22119Q   24066.23970262 -.00001905  00000-0 -10162-3 0  9991,2 53900  53.2182  16.3463 0001330  87.2703 272.8442 15.08839708 80968,6917.881,95.438,540.666,538.826,0.0
53900.0,STARLINK-5045,PAYLOAD,2024-03-07 04:00:36,15.08831127,0.0001488,53.2186,12.1808,85.0305,275.0857,-7.1853e-05,-1.431e-05,0.0,0 STARLINK-5045,1 53900U 22119Q   24067.16709031 -.00001431  00000-0 -71853-4 0  9997,2 53900  53.2186  12.1808 0001488  85.0305 275.0857 15.08831127 80688,6917.908,95.438,540.802,538.743,0.0
53900.0,STARLINK-5045,PAYLOAD,2024-03-07 13:32:52,15.08860122,8.3e-05,53.2189,10.3975,90.943,269.1657,0.00011431,1.533e-05,0.0,0 STARLINK-5045,1 53900U 22119Q   24067.56450203  .00001533  00000-0  11431-3 0  9991,2 53900  53.2189  10.3975 0000830  90.9430 269.1657 15.08860122 81163,6917.819,95.436,540.258,539.11,0.0
53900.0,STARLINK-5045,PAYLOAD,2024-03-08 00:40:32,15.08889144,8.07e-05,53.22,8.314,100.4747,259.6336,0.00019066,2.752e-05,0.0,0 STARLINK-5045,1 53900U 22119Q   24068.02815209  .00002752  00000-0  19066-3 0  9990,2 53900  53.2200   8.3140 0000807 100.4747 259.6336 15.08889144 80814,6917.73,95.434,540.153,539.037,0.0
53900.0,STARLINK-5045,PAYLOAD,2024-03-08 13:23:40,15.08826758,0.0001082,53.22,5.9343,87.4965,272.6151,0.00015332,2.152e-05,0.0,0 STARLINK-5045,1 53900U 22119Q   24068.55811137  .00002152  00000-0  15332-3 0  9990,2 53900  53.2200   5.9343 0001082  87.4965 272.6151 15.08826758 81312,6917.921,95.438,540.534,539.037,0.0
53900.0,STARLINK-5045,PAYLOAD,2024-03-08 19:45:14,15.0883017,0.0002077,53.2189,4.7447,90.7286,269.3944,2.74e-05,1.48e-06,0.0,0 STARLINK-5045,1 53900U 22119Q   24068.82308834  .00000148  00000-0  27400-4 0  9998,2 53900  53.2189   4.7447 0002077  90.7286 269.3944 15.08830170 80931,6917.91,95.438,541.212,538.339,0.0
53900.0,STARLINK-5045,PAYLOAD,2024-03-09 02:06:47,15.08821333,0.0001502,53.2189,3.5555,97.338,262.7783,-2.2418e-06,-3.24e-06,0.0,0 STARLINK-5045,1 53900U 22119Q   24069.08805497 -.00000324  00000-0 -22418-5 0  9997,2 53900  53.2189   3.5555 0001502  97.3380 262.7783 15.08821333 80971,6917.937,95.439,540.842,538.763,0.0
53900.0,STARLINK-5045,PAYLOAD,2024-03-09 05:17:34,15.08825057,0.0001523,53.2193,2.9604,97.3546,262.762,-1.4872e-06,-3.12e-06,0.0,0 STARLINK-5045,1 53900U 22119Q   24069.22053411 -.00000312  00000-0 -14872-5 0  9996,2 53900  53.2193   2.9604 0001523  97.3546 262.7620 15.08825057 81418,6917.926,95.438,540.845,538.737,0.0
53900.0,STARLINK-5045,PAYLOAD,2024-03-09 19:36:00,15.0886875,4.54e-05,53.2199,0.2867,82.374,277.7304,-0.00034969,-5.853e-05,0.0,0 STARLINK-5045,1 53900U 22119Q   24069.81667019 -.00005853  00000-0 -34969-3 0  9998,2 53900  53.2199   0.2867 0000454  82.3740 277.7304 15.08868750 81083,6917.793,95.436,539.972,539.343,0.0
53900.0,STARLINK-5045,PAYLOAD,2024-03-10 05:08:17,15.0887886,0.0001071,53.2183,358.5009,90.1849,269.9266,-0.00022022,-3.795e-05,0.0,0 STARLINK-5045,1 53900U 22119Q   24070.21409608 -.00003795  00000-0 -22022-3 0  9992,2 53900  53.2183 358.5009 0001071  90.1849 269.9266 15.08878860 81146,6917.762,95.435,540.368,538.886,0.0
53900.0,STARLINK-5045,PAYLOAD,2024-03-10 19:26:48,15.08836313,0.0001364,53.2171,355.8214,93.4583,266.6565,0.00029101,4.346e-05,0.0,0 STARLINK-5045,1 53900U 22119Q   24070.81028035  .00004346  00000-0  29101-3 0  9995,2 53900  53.2171 355.8214 0001364  93.4583 266.6565 15.08836313 81230,6917.892,95.438,540.7,538.813,0.0
53900.0,STARLINK-5045,PAYLOAD,2024-03-10 22:37:34,15.08827482,0.0001306,53.2181,355.2304,102.2718,257.8421,0.00024807,3.661e-05,0.0,0 STARLINK-5045,1 53900U 22119Q   24070.94276159  .00003661  00000-0  24807-3 0  9998,2 53900  53.2181 355.2304 0001306 102.2718 257.8421 15.08827482 81678,6917.919,95.438,540.687,538.88,0.0
53900.0,STARLINK-5045,PAYLOAD,2024-03-11 01:48:21,15.08824581,0.000125,53.2182,354.6359,95.2277,264.8858,0.00021475,3.13e-05,0.0,0 STARLINK-5045,1 53900U 22119Q   24071.07524530  .00003130  00000-0  21475-3 0  9991,2 53900  53.2182 354.6359 0001250  95.2277 264.8858 15.08824581 81276,6917.928,95.439,540.657,538.928,0.0
53900.0,STARLINK-5045,PAYLOAD,2024-03-11 11:20:39,15.08836243,0.0001381,53.2187,352.8521,95.6338,264.4812,0.00017678,2.526e-05,0.0,0 STARLINK-5045,1 53900U 22119Q   24071.47268035  .00002526  00000-0  17678-3 0  9998,2 53900  53.2187 352.8521 0001381  95.6338 264.4812 15.08836243 81330,6917.892,95.438,540.712,538.802,0.0
53900.0,STARLINK-5045,PAYLOAD,2024-03-12 11:11:26,15.08854463,0.0001541,53.219,348.3946,83.9684,276.1484,-3.7767e-05,-8.89e-06,0.0,0 STARLINK-5045,1 53900U 22119Q   24072.46627367 -.00000889  00000-0 -37767-4 0  9999,2 53900  53.2190 348.3946 0001541  83.9684 276.1484 15.08854463 81482,6917.836,95.437,540.767,538.635,0.0
53900.0,STARLINK-5045,PAYLOAD,2024-03-12 19:08:22,15.08834337,0.000203,53.2192,346.9077,96.8438,263.2785,0.00014417,2.007e-05,0.0,0 STARLINK-5045,1 53900U 22119Q   24072.79748390  .00002007  00000-0  14417-3 0  9993,2 53900  53.2192 346.9077 0002030  96.8438 263.2785 15.08834337 81958,6917.898,95.438,541.167,538.358,0.0
